SL-14 R/B               
1 16792U 86046B   26043.21222622  .00000478  00000+0  52306-4 0  9991
2 16792  82.4808 104.2594 0021959 314.9635  44.9799 14.85565654122623
SL-14 R/B               
1 16882U 86055B   26043.27018740  .00000602  00000+0  66531-4 0  9995
2 16882  82.5233 150.5591 0020173  58.9131 331.1529 14.85616705115594
AJISAI (EGS)            
1 16908U 86061A   26043.49269833 -.00000105  00000+0 -53408-4 0  9995
2 16908  50.0083 170.8283 0011242 222.0696 178.5102 12.44515325464862
COSMOS 1812             
1 17295U 87003A   26043.50107925  .00356856  50332-4  80740-3 0  9998
2 17295  82.4761 224.2550 0002026 307.7998  52.3095 15.97544829140437
SL-14 R/B               
1 17567U 87024B   26043.25492436  .00000495  00000+0  53594-4 0  9994
2 17567  82.5285 116.6702 0017851 349.9136  10.1720 14.86107875 84356
COSMOS 1833             
1 17589U 87027A   26043.37604792  .00000017  00000+0  35025-4 0  9993
2 17589  70.9220  19.2176 0024913 248.5585 111.2878 14.13057093  6742
SL-16 R/B               
1 17590U 87027B   26043.28185887 -.00000131  00000+0 -41045-4 0  9992
2 17590  71.0047 330.0345 0004859 187.7656 172.3393 14.17162934 11746
SL-14 R/B               
1 17912U 87038B   26043.23678455  .00000568  00000+0  63125-4 0  9990
2 17912  82.5039 320.7802 0017733 247.3108 112.6233 14.85344719 75452
COSMOS 1844             
1 17973U 87041A   26043.50874852  .00000450  00000+0  25826-3 0  9995
2 17973  70.8980  87.2918 0028945  58.1650 302.2284 14.14544310    29
SL-14 R/B               
1 18153U 87055B   26043.42023316  .00000638  00000+0  70596-4 0  9996
2 18153  82.5002  12.8426 0022322  96.4818 263.8940 14.85597814 66182
COSMOS 1867             
1 18187U 87060A   26043.29107291 -.00000006  00000+0  35426-4 0  9992
2 18187  65.0117  17.8303 0014155 276.9104  83.0370 14.31498947 16305
SL-14 R/B               
1 18749U 88001B   26043.48114239  .00000586  00000+0  65027-4 0  9995
2 18749  82.5110 219.0697 0017173 325.8818  34.1292 14.85497010 38287
