CCSDS_OMM_VERS = 2.0
CREATION_DATE  = 
ORIGINATOR     = 

OBJECT_NAME    = SL-14 R/B
OBJECT_ID      = 1986-046B
CENTER_NAME    = EARTH
REF_FRAME      = TEME
TIME_SYSTEM    = UTC
MEAN_ELEMENT_THEORY = SGP/SGP4

EPOCH          = 2026-02-12T05:05:36.345408
MEAN_MOTION    = 14.85565654
ECCENTRICITY   = .0021959
INCLINATION    = 82.4808
RA_OF_ASC_NODE = 104.2594
ARG_OF_PERICENTER = 314.9635
MEAN_ANOMALY   = 44.9799

EPHEMERIS_TYPE = 0
CLASSIFICATION_TYPE = U
NORAD_CAT_ID   = 16792
ELEMENT_SET_NO = 999
REV_AT_EPOCH   = 12262
BSTAR          = .52306E-4
MEAN_MOTION_DOT = .478E-5
MEAN_MOTION_DDOT = 0

CCSDS_OMM_VERS = 2.0
CREATION_DATE  = 
ORIGINATOR     = 

OBJECT_NAME    = SL-14 R/B
OBJECT_ID      = 1986-055B
CENTER_NAME    = EARTH
REF_FRAME      = TEME
TIME_SYSTEM    = UTC
MEAN_ELEMENT_THEORY = SGP/SGP4

EPOCH          = 2026-02-12T06:29:04.191360
MEAN_MOTION    = 14.85616705
ECCENTRICITY   = .0020173
INCLINATION    = 82.5233
RA_OF_ASC_NODE = 150.5591
ARG_OF_PERICENTER = 58.9131
MEAN_ANOMALY   = 331.1529

EPHEMERIS_TYPE = 0
CLASSIFICATION_TYPE = U
NORAD_CAT_ID   = 16882
ELEMENT_SET_NO = 999
REV_AT_EPOCH   = 11559
BSTAR          = .66531E-4
MEAN_MOTION_DOT = .602E-5
MEAN_MOTION_DDOT = 0

CCSDS_OMM_VERS = 2.0
CREATION_DATE  = 
ORIGINATOR     = 

OBJECT_NAME    = AJISAI (EGS)
OBJECT_ID      = 1986-061A
CENTER_NAME    = EARTH
REF_FRAME      = TEME
TIME_SYSTEM    = UTC
MEAN_ELEMENT_THEORY = SGP/SGP4

EPOCH          = 2026-02-12T11:49:29.135712
MEAN_MOTION    = 12.44515325
ECCENTRICITY   = .0011242
INCLINATION    = 50.0083
RA_OF_ASC_NODE = 170.8283
ARG_OF_PERICENTER = 222.0696
MEAN_ANOMALY   = 178.5102

EPHEMERIS_TYPE = 0
CLASSIFICATION_TYPE = U
NORAD_CAT_ID   = 16908
ELEMENT_SET_NO = 999
REV_AT_EPOCH   = 46486
BSTAR          = -.53408E-4
MEAN_MOTION_DOT = -.105E-5
MEAN_MOTION_DDOT = 0

CCSDS_OMM_VERS = 2.0
CREATION_DATE  = 
ORIGINATOR     = 

OBJECT_NAME    = COSMOS 1812
OBJECT_ID      = 1987-003A
CENTER_NAME    = EARTH
REF_FRAME      = TEME
TIME_SYSTEM    = UTC
MEAN_ELEMENT_THEORY = SGP/SGP4

EPOCH          = 2026-02-12T12:01:33.247200
MEAN_MOTION    = 15.97544829
ECCENTRICITY   = .0002026
INCLINATION    = 82.4761
RA_OF_ASC_NODE = 224.2550
ARG_OF_PERICENTER = 307.7998
MEAN_ANOMALY   = 52.3095

EPHEMERIS_TYPE = 0
CLASSIFICATION_TYPE = U
NORAD_CAT_ID   = 17295
ELEMENT_SET_NO = 999
REV_AT_EPOCH   = 14043
BSTAR          = .8074E-3
MEAN_MOTION_DOT = .356856E-2
MEAN_MOTION_DDOT = .50332E-4

CCSDS_OMM_VERS = 2.0
CREATION_DATE  = 
ORIGINATOR     = 

OBJECT_NAME    = SL-14 R/B
OBJECT_ID      = 1987-024B
CENTER_NAME    = EARTH
REF_FRAME      = TEME
TIME_SYSTEM    = UTC
MEAN_ELEMENT_THEORY = SGP/SGP4

EPOCH          = 2026-02-12T06:07:05.464704
MEAN_MOTION    = 14.86107875
ECCENTRICITY   = .0017851
INCLINATION    = 82.5285
RA_OF_ASC_NODE = 116.6702
ARG_OF_PERICENTER = 349.9136
MEAN_ANOMALY   = 10.1720

EPHEMERIS_TYPE = 0
CLASSIFICATION_TYPE = U
NORAD_CAT_ID   = 17567
ELEMENT_SET_NO = 999
REV_AT_EPOCH   = 8435
BSTAR          = .53594E-4
MEAN_MOTION_DOT = .495E-5
MEAN_MOTION_DDOT = 0

CCSDS_OMM_VERS = 2.0
CREATION_DATE  = 
ORIGINATOR     = 

OBJECT_NAME    = COSMOS 1833
OBJECT_ID      = 1987-027A
CENTER_NAME    = EARTH
REF_FRAME      = TEME
TIME_SYSTEM    = UTC
MEAN_ELEMENT_THEORY = SGP/SGP4

EPOCH          = 2026-02-12T09:01:30.540288
MEAN_MOTION    = 14.13057093
ECCENTRICITY   = .0024913
INCLINATION    = 70.9220
RA_OF_ASC_NODE = 19.2176
ARG_OF_PERICENTER = 248.5585
MEAN_ANOMALY   = 111.2878

EPHEMERIS_TYPE = 0
CLASSIFICATION_TYPE = U
NORAD_CAT_ID   = 17589
ELEMENT_SET_NO = 999
REV_AT_EPOCH   = 674
BSTAR          = .35025E-4
MEAN_MOTION_DOT = .17E-6
MEAN_MOTION_DDOT = 0

CCSDS_OMM_VERS = 2.0
CREATION_DATE  = 
ORIGINATOR     = 

OBJECT_NAME    = SL-16 R/B
OBJECT_ID      = 1987-027B
CENTER_NAME    = EARTH
REF_FRAME      = TEME
TIME_SYSTEM    = UTC
MEAN_ELEMENT_THEORY = SGP/SGP4

EPOCH          = 2026-02-12T06:45:52.606368
MEAN_MOTION    = 14.17162934
ECCENTRICITY   = .0004859
INCLINATION    = 71.0047
RA_OF_ASC_NODE = 330.0345
ARG_OF_PERICENTER = 187.7656
MEAN_ANOMALY   = 172.3393

EPHEMERIS_TYPE = 0
CLASSIFICATION_TYPE = U
NORAD_CAT_ID   = 17590
ELEMENT_SET_NO = 999
REV_AT_EPOCH   = 1174
BSTAR          = -.41045E-4
MEAN_MOTION_DOT = -.131E-5
MEAN_MOTION_DDOT = 0

CCSDS_OMM_VERS = 2.0
CREATION_DATE  = 
ORIGINATOR     = 

OBJECT_NAME    = SL-14 R/B
OBJECT_ID      = 1987-038B
CENTER_NAME    = EARTH
REF_FRAME      = TEME
TIME_SYSTEM    = UTC
MEAN_ELEMENT_THEORY = SGP/SGP4

EPOCH          = 2026-02-12T05:40:58.185120
MEAN_MOTION    = 14.85344719
ECCENTRICITY   = .0017733
INCLINATION    = 82.5039
RA_OF_ASC_NODE = 320.7802
ARG_OF_PERICENTER = 247.3108
MEAN_ANOMALY   = 112.6233

EPHEMERIS_TYPE = 0
CLASSIFICATION_TYPE = U
NORAD_CAT_ID   = 17912
ELEMENT_SET_NO = 999
REV_AT_EPOCH   = 7545
BSTAR          = .63125E-4
MEAN_MOTION_DOT = .568E-5
MEAN_MOTION_DDOT = 0

CCSDS_OMM_VERS = 2.0
CREATION_DATE  = 
ORIGINATOR     = 

OBJECT_NAME    = COSMOS 1844
OBJECT_ID      = 1987-041A
CENTER_NAME    = EARTH
REF_FRAME      = TEME
TIME_SYSTEM    = UTC
MEAN_ELEMENT_THEORY = SGP/SGP4

EPOCH          = 2026-02-12T12:12:35.872128
MEAN_MOTION    = 14.14544310
ECCENTRICITY   = .0028945
INCLINATION    = 70.8980
RA_OF_ASC_NODE = 87.2918
ARG_OF_PERICENTER = 58.1650
MEAN_ANOMALY   = 302.2284

EPHEMERIS_TYPE = 0
CLASSIFICATION_TYPE = U
NORAD_CAT_ID   = 17973
ELEMENT_SET_NO = 999
REV_AT_EPOCH   = 2
BSTAR          = .25826E-3
MEAN_MOTION_DOT = .45E-5
MEAN_MOTION_DDOT = 0

CCSDS_OMM_VERS = 2.0
CREATION_DATE  = 
ORIGINATOR     = 

OBJECT_NAME    = SL-14 R/B
OBJECT_ID      = 1987-055B
CENTER_NAME    = EARTH
REF_FRAME      = TEME
TIME_SYSTEM    = UTC
MEAN_ELEMENT_THEORY = SGP/SGP4

EPOCH          = 2026-02-12T10:05:08.145024
MEAN_MOTION    = 14.85597814
ECCENTRICITY   = .0022322
INCLINATION    = 82.5002
RA_OF_ASC_NODE = 12.8426
ARG_OF_PERICENTER = 96.4818
MEAN_ANOMALY   = 263.8940

EPHEMERIS_TYPE = 0
CLASSIFICATION_TYPE = U
NORAD_CAT_ID   = 18153
ELEMENT_SET_NO = 999
REV_AT_EPOCH   = 6618
BSTAR          = .70596E-4
MEAN_MOTION_DOT = .638E-5
MEAN_MOTION_DDOT = 0

CCSDS_OMM_VERS = 2.0
CREATION_DATE  = 
ORIGINATOR     = 

OBJECT_NAME    = COSMOS 1867
OBJECT_ID      = 1987-060A
CENTER_NAME    = EARTH
REF_FRAME      = TEME
TIME_SYSTEM    = UTC
MEAN_ELEMENT_THEORY = SGP/SGP4

EPOCH          = 2026-02-12T06:59:08.699424
MEAN_MOTION    = 14.31498947
ECCENTRICITY   = .0014155
INCLINATION    = 65.0117
RA_OF_ASC_NODE = 17.8303
ARG_OF_PERICENTER = 276.9104
MEAN_ANOMALY   = 83.0370

EPHEMERIS_TYPE = 0
CLASSIFICATION_TYPE = U
NORAD_CAT_ID   = 18187
ELEMENT_SET_NO = 999
REV_AT_EPOCH   = 1630
BSTAR          = .35426E-4
MEAN_MOTION_DOT = -.6E-7
MEAN_MOTION_DDOT = 0

CCSDS_OMM_VERS = 2.0
CREATION_DATE  = 
ORIGINATOR     = 

OBJECT_NAME    = SL-14 R/B
OBJECT_ID      = 1988-001B
CENTER_NAME    = EARTH
REF_FRAME      = TEME
TIME_SYSTEM    = UTC
MEAN_ELEMENT_THEORY = SGP/SGP4

EPOCH          = 2026-02-12T11:32:50.702496
MEAN_MOTION    = 14.85497010
ECCENTRICITY   = .0017173
INCLINATION    = 82.5110
RA_OF_ASC_NODE = 219.0697
ARG_OF_PERICENTER = 325.8818
MEAN_ANOMALY   = 34.1292

EPHEMERIS_TYPE = 0
CLASSIFICATION_TYPE = U
NORAD_CAT_ID   = 18749
ELEMENT_SET_NO = 999
REV_AT_EPOCH   = 3828
BSTAR          = .65027E-4
MEAN_MOTION_DOT = .586E-5
MEAN_MOTION_DDOT = 0

